{
  "type": "FeatureCollection",
  "features": [
    {
      "type": "Feature",
      "properties": {
        "norad_id": 34765,
        "name": "IRIDIUM 33 DEB",
        "group": "iridium-33-debris",
        "lat": -47.48513659676943,
        "lon": -144.54397907806606,
        "alt_km": 753.8411896199013,
        "timestamp": "2025-12-15T19:00:45.743900+00:00",
        "meta_object_name": "IRIDIUM 33 DEB",
        "meta_object_id": "1997-051LJ",
        "meta_epoch": "2025-12-14T14:19:22.742400",
        "meta_mean_motion": 14.40471099,
        "meta_eccentricity": 0.00156422,
        "meta_inclination": 86.3397,
        "meta_ra_of_asc_node": 31.965,
        "meta_arg_of_pericenter": 204.9445,
        "meta_mean_anomaly": 307.4254,
        "meta_ephemeris_type": 0,
        "meta_classification_type": "U",
        "meta_norad_cat_id": 34765,
        "meta_element_set_no": 999,
        "meta_rev_at_epoch": 87640,
        "meta_bstar": 0.00042392247,
        "meta_mean_motion_dot": 1.369e-05,
        "meta_mean_motion_ddot": 0,
        "tle_line1": "1 34765U 97051LJ  25348.59679100  .00001369  00000+0  42392-3 0  9997",
        "tle_line2": "2 34765  86.3397  31.9650 0015642 204.9445 307.4254 14.40471099876402"
      },
      "geometry": {
        "type": "Point",
        "coordinates": [
          -144.54397907806606,
          -47.48513659676943
        ]
      }
    },
    {
      "type": "Feature",
      "properties": {
        "norad_id": 34833,
        "name": "IRIDIUM 33 DEB",
        "group": "iridium-33-debris",
        "lat": 75.69464284501376,
        "lon": -144.64361586743672,
        "alt_km": 695.8369026959954,
        "timestamp": "2025-12-15T19:00:45.743910+00:00",
        "meta_object_name": "IRIDIUM 33 DEB",
        "meta_object_id": "1997-051MH",
        "meta_epoch": "2025-12-14T04:45:15.078816",
        "meta_mean_motion": 14.5239107,
        "meta_eccentricity": 0.00217354,
        "meta_inclination": 86.3931,
        "meta_ra_of_asc_node": 50.3648,
        "meta_arg_of_pericenter": 94.0496,
        "meta_mean_anomaly": 320.0854,
        "meta_ephemeris_type": 0,
        "meta_classification_type": "U",
        "meta_norad_cat_id": 34833,
        "meta_element_set_no": 999,
        "meta_rev_at_epoch": 87736,
        "meta_bstar": 0.00088730228,
        "meta_mean_motion_dot": 3.644e-05,
        "meta_mean_motion_ddot": 0,
        "tle_line1": "1 34833U 97051MH  25348.19809119  .00003644  00000+0  88730-3 0  9998",
        "tle_line2": "2 34833  86.3931  50.3648 0021735  94.0496 320.0854 14.52391070877364"
      },
      "geometry": {
        "type": "Point",
        "coordinates": [
          -144.64361586743672,
          75.69464284501376
        ]
      }
    },
    {
      "type": "Feature",
      "properties": {
        "norad_id": 34870,
        "name": "IRIDIUM 33 DEB",
        "group": "iridium-33-debris",
        "lat": -19.980747175150157,
        "lon": -48.65847067182179,
        "alt_km": 656.8871952534455,
        "timestamp": "2025-12-15T19:00:45.743921+00:00",
        "meta_object_name": "IRIDIUM 33 DEB",
        "meta_object_id": "1997-051MQ",
        "meta_epoch": "2025-12-13T15:51:00.242208",
        "meta_mean_motion": 14.76459498,
        "meta_eccentricity": 0.00163253,
        "meta_inclination": 86.31,
        "meta_ra_of_asc_node": 313.6624,
        "meta_arg_of_pericenter": 179.046,
        "meta_mean_anomaly": 357.3162,
        "meta_ephemeris_type": 0,
        "meta_classification_type": "U",
        "meta_norad_cat_id": 34870,
        "meta_element_set_no": 999,
        "meta_rev_at_epoch": 88924,
        "meta_bstar": 0.0017247419,
        "meta_mean_motion_dot": 0.00012059,
        "meta_mean_motion_ddot": 0,
        "tle_line1": "1 34870U 97051MQ  25347.66041947  .00012059  00000+0  17247-2 0  9991",
        "tle_line2": "2 34870  86.3100 313.6624 0016325 179.0460 357.3162 14.76459498889246"
      },
      "geometry": {
        "type": "Point",
        "coordinates": [
          -48.65847067182179,
          -19.980747175150157
        ]
      }
    },
    {
      "type": "Feature",
      "properties": {
        "norad_id": 34896,
        "name": "IRIDIUM 33 DEB",
        "group": "iridium-33-debris",
        "lat": 69.0056772246359,
        "lon": -25.05209188215816,
        "alt_km": 678.2323895831742,
        "timestamp": "2025-12-15T19:00:45.743931+00:00",
        "meta_object_name": "IRIDIUM 33 DEB",
        "meta_object_id": "1997-051MY",
        "meta_epoch": "2025-12-14T05:05:50.525376",
        "meta_mean_motion": 14.66300164,
        "meta_eccentricity": 0.00244756,
        "meta_inclination": 86.3287,
        "meta_ra_of_asc_node": 326.0246,
        "meta_arg_of_pericenter": 208.9085,
        "meta_mean_anomaly": 166.7259,
        "meta_ephemeris_type": 0,
        "meta_classification_type": "U",
        "meta_norad_cat_id": 34896,
        "meta_element_set_no": 999,
        "meta_rev_at_epoch": 87641,
        "meta_bstar": 0.0011083556,
        "meta_mean_motion_dot": 6.162e-05,
        "meta_mean_motion_ddot": 0,
        "tle_line1": "1 34896U 97051MY  25348.21239034  .00006162  00000+0  11084-2 0  9998",
        "tle_line2": "2 34896  86.3287 326.0246 0024475 208.9085 166.7259 14.66300164876416"
      },
      "geometry": {
        "type": "Point",
        "coordinates": [
          -25.05209188215816,
          69.0056772246359
        ]
      }
    },
    {
      "type": "Feature",
      "properties": {
        "norad_id": 34926,
        "name": "IRIDIUM 33 DEB",
        "group": "iridium-33-debris",
        "lat": 27.407582328785914,
        "lon": 8.869027339869408,
        "alt_km": 723.118334831709,
        "timestamp": "2025-12-15T19:00:45.743941+00:00",
        "meta_object_name": "IRIDIUM 33 DEB",
        "meta_object_id": "1997-051NF",
        "meta_epoch": "2025-12-14T01:51:40.129056",
        "meta_mean_motion": 14.54500914,
        "meta_eccentricity": 0.00755735,
        "meta_inclination": 86.1333,
        "meta_ra_of_asc_node": 7.654,
        "meta_arg_of_pericenter": 288.4035,
        "meta_mean_anomaly": 125.6013,
        "meta_ephemeris_type": 0,
        "meta_classification_type": "U",
        "meta_norad_cat_id": 34926,
        "meta_element_set_no": 999,
        "meta_rev_at_epoch": 86476,
        "meta_bstar": 0.0053943711,
        "meta_mean_motion_dot": 0.00023949,
        "meta_mean_motion_ddot": 0,
        "tle_line1": "1 34926U 97051NF  25348.07754779  .00023949  00000+0  53944-2 0  9997",
        "tle_line2": "2 34926  86.1333   7.6540 0075573 288.4035 125.6013 14.54500914864761"
      },
      "geometry": {
        "type": "Point",
        "coordinates": [
          8.869027339869408,
          27.407582328785914
        ]
      }
    },
    {
      "type": "Feature",
      "properties": {
        "norad_id": 34985,
        "name": "IRIDIUM 33 DEB",
        "group": "iridium-33-debris",
        "lat": 14.61225159098616,
        "lon": 56.525819559126646,
        "alt_km": 767.1798684985642,
        "timestamp": "2025-12-15T19:00:45.743952+00:00",
        "meta_object_name": "IRIDIUM 33 DEB",
        "meta_object_id": "1997-051NR",
        "meta_epoch": "2025-12-14T04:53:38.247360",
        "meta_mean_motion": 14.42019267,
        "meta_eccentricity": 0.00208706,
        "meta_inclination": 86.37,
        "meta_ra_of_asc_node": 56.2548,
        "meta_arg_of_pericenter": 214.6902,
        "meta_mean_anomaly": 200.0327,
        "meta_ephemeris_type": 0,
        "meta_classification_type": "U",
        "meta_norad_cat_id": 34985,
        "meta_element_set_no": 999,
        "meta_rev_at_epoch": 87196,
        "meta_bstar": 0.00078314681,
        "meta_mean_motion_dot": 2.594e-05,
        "meta_mean_motion_ddot": 0,
        "tle_line1": "1 34985U 97051NR  25348.20391490  .00002594  00000+0  78315-3 0  9997",
        "tle_line2": "2 34985  86.3700  56.2548 0020870 214.6902 200.0327 14.42019267871967"
      },
      "geometry": {
        "type": "Point",
        "coordinates": [
          56.525819559126646,
          14.61225159098616
        ]
      }
    },
    {
      "type": "Feature",
      "properties": {
        "norad_id": 35051,
        "name": "IRIDIUM 33 DEB",
        "group": "iridium-33-debris",
        "lat": 8.545876828306314,
        "lon": 8.085604615230377,
        "alt_km": 732.8963693977303,
        "timestamp": "2025-12-15T19:00:45.743963+00:00",
        "meta_object_name": "IRIDIUM 33 DEB",
        "meta_object_id": "1997-051NX",
        "meta_epoch": "2025-12-11T08:47:57.045408",
        "meta_mean_motion": 14.47588957,
        "meta_eccentricity": 0.00106566,
        "meta_inclination": 86.3243,
        "meta_ra_of_asc_node": 9.4603,
        "meta_arg_of_pericenter": 94.8899,
        "meta_mean_anomaly": 265.3522,
        "meta_ephemeris_type": 0,
        "meta_classification_type": "U",
        "meta_norad_cat_id": 35051,
        "meta_element_set_no": 999,
        "meta_rev_at_epoch": 86976,
        "meta_bstar": 0.001042299,
        "meta_mean_motion_dot": 3.858e-05,
        "meta_mean_motion_ddot": 0,
        "tle_line1": "1 35051U 97051NX  25345.36663247  .00003858  00000+0  10423-2 0  9997",
        "tle_line2": "2 35051  86.3243   9.4603 0010656  94.8899 265.3522 14.47588957869768"
      },
      "geometry": {
        "type": "Point",
        "coordinates": [
          8.085604615230377,
          8.545876828306314
        ]
      }
    }
  ]
}